{
  "type": "FeatureCollection",
  "features": [
    { "type": "Feature", "geometry": { "type": "Point", "coordinates": [15.6, 46.55] }, "properties": { "name": "Garsonjera Center", "listings": "Maribor", "type": "stanovanje" } },
    { "type": "Feature", "geometry": { "type": "Point", "coordinates": [15.6467, 46.5547] }, "properties": { "name": "Stanovanje Center", "listings": "Maribor", "type": "stanovanje", "offerType": "prodaja", "size": 65, "price": 162500, "region": "Podravska", "neighborhood": "Center", "description": "Stanovanje v mestnem jedru", "source": "nepremicnine.si", "ogrevanje": "plin" } },
    { "type": "Feature", "geometry": { "type": "Polygon", "coordinates": [[[15.64, 46.55], [15.645, 46.55], [15.645, 46.554], [15.6446875, 46.553948737], [15.644375, 46.553904309], [15.6440625, 46.553866716], [15.64375, 46.553835959], [15.6434375, 46.553812036], [15.643125, 46.553794948], [15.6428125, 46.553784696], [15.6425, 46.553781278], [15.6421875, 46.553784696], [15.641875, 46.553794948], [15.6415625, 46.553812036], [15.64125, 46.553835959], [15.6409375, 46.553866716], [15.640625, 46.553904309], [15.6403125, 46.553948737], [15.64, 46.554], [15.64, 46.55]]] }, "properties": { "name": "Stanovanje Center", "listings": "Maribor", "type": "stanovanje", "offerType": "prodaja", "size": 65, "price": 162500, "region": "Podravska", "neighborhood": "Center", "description": "Stanovanje v mestnem jedru", "source": "nepremicnine.si", "ogrevanje": "plin" } },
    { "type": "Feature", "geometry": { "type": "Point", "coordinates": [15.6567, 46.5447] }, "properties": { "name": "Hiša Tabor", "listings": "Maribor", "type": "hiša", "offerType": "najem", "size": 120, "price": 295000, "region": "Podravska", "neighborhood": "Tabor", "zgrajeno": 1998 } },
    { "type": "Feature", "geometry": { "type": "Polygon", "coordinates": [[[15.7, 46.556], [15.706, 46.556], [15.706, 46.55], [15.7, 46.55], [15.7, 46.556]]] }, "properties": { "name": "Hiša Tabor", "listings": "Maribor", "type": "hiša", "offerType": "najem", "size": 120, "price": 295000, "region": "Podravska", "neighborhood": "Tabor", "zgrajeno": 1998 } },
    { "type": "Feature", "geometry": { "type": "Point", "coordinates": [15.752, 46.553] }, "properties": { "name": "Parcela Pobrežje", "listings": "Maribor", "type": "posest" } },
    { "type": "Feature", "geometry": { "type": "Polygon", "coordinates": [[[15.75, 46.55], [15.755, 46.55], [15.752, 46.555], [15.75, 46.55]]] }, "properties": { "name": "Parcela Pobrežje", "listings": "Maribor", "type": "posest" } },
    { "type": "Feature", "geometry": { "type": "Point", "coordinates": [15.61, 46.56] }, "properties": { "name": "Stanovanje Studenci", "listings": "Maribor", "type": "stanovanje", "offerType": "prodaja", "size": 80, "price": 147000 } },
    { "type": "Feature", "geometry": { "type": "Point", "coordinates": [-15.123, -46.456] }, "properties": { "name": "Zemljišče Južni rob", "listings": "Maribor", "type": "posest", "description": "Preizkus negativnih koordinat" } },
    { "type": "Feature", "geometry": { "type": "Point", "coordinates": [15.62, 46.57] }, "properties": { "name": "Hiša ob Dravi", "listings": "Maribor", "type": "hiša", "region": "Štajerska", "neighborhood": "Pobrežje", "description": "Hiša ob reki Dravi" } },
    { "type": "Feature", "geometry": { "type": "Point", "coordinates": [15.63, 46.58] }, "properties": { "name": "Vila Kalvarija", "listings": "Maribor", "type": "stanovanje", "ogrevanje": "toplotna črpalka", "nadstropja": 2, "cena_na_kvadrat": 3.14, "oddano": true, "upravnik": null, "vogal": [15.6, 46.5] } },
    { "type": "Feature", "geometry": { "type": "Point", "coordinates": [15.64, 46.59] }, "properties": { "name": "Posest Pekre", "listings": "Maribor", "type": "hiša", "size": 16, "price": 298 } },
    { "type": "Feature", "geometry": { "type": "Point", "coordinates": [15.8, 46.55] }, "properties": { "name": "Posest Maribor", "listings": "Maribor", "type": "posest", "offerType": "najem", "size": 5, "price": 100000 } }
  ]
}